[{"OBJECT_NAME":"BADR-5","OBJECT_ID":"2010-025A","EPOCH":"2026-03-04T20:20:21.857280","MEAN_MOTION":1.00276295,"ECCENTRICITY":0.0001474,"INCLINATION":0.0367,"RA_OF_ASC_NODE":129.2821,"ARG_OF_PERICENTER":262.9203,"MEAN_ANOMALY":101.452,"EPHEMERIS_TYPE":0,"CLASSIFICATION_TYPE":"U","NORAD_CAT_ID":36592,"ELEMENT_SET_NO":999,"REV_AT_EPOCH":5217,"BSTAR":0,"MEAN_MOTION_DOT":1.35e-6,"MEAN_MOTION_DDOT":0},{"OBJECT_NAME":"COMS 1","OBJECT_ID":"2010-032A","EPOCH":"2026-03-04T17:00:33.034752","MEAN_MOTION":1.00272271,"ECCENTRICITY":0.00012,"INCLINATION":4.5366,"RA_OF_ASC_NODE":76.8652,"ARG_OF_PERICENTER":284.1468,"MEAN_ANOMALY":184.7502,"EPHEMERIS_TYPE":0,"CLASSIFICATION_TYPE":"U","NORAD_CAT_ID":36744,"ELEMENT_SET_NO":999,"REV_AT_EPOCH":5004,"BSTAR":0,"MEAN_MOTION_DOT":-3.53e-6,"MEAN_MOTION_DDOT":0},{"OBJECT_NAME":"ARABSAT-5A","OBJECT_ID":"2010-032B","EPOCH":"2026-03-04T08:46:14.649312","MEAN_MOTION":1.00270709,"ECCENTRICITY":0.00028228,"INCLINATION":0.0715,"RA_OF_ASC_NODE":52.0432,"ARG_OF_PERICENTER":317.9219,"MEAN_ANOMALY":314.1895,"EPHEMERIS_TYPE":0,"CLASSIFICATION_TYPE":"U","NORAD_CAT_ID":36745,"ELEMENT_SET_NO":999,"REV_AT_EPOCH":5759,"BSTAR":0,"MEAN_MOTION_DOT":1.42e-6,"MEAN_MOTION_DDOT":0},{"OBJECT_NAME":"ECHOSTAR 15","OBJECT_ID":"2010-034A","EPOCH":"2026-03-04T09:57:38.664576","MEAN_MOTION":1.00270831,"ECCENTRICITY":0.0002177,"INCLINATION":0.0517,"RA_OF_ASC_NODE":279.0583,"ARG_OF_PERICENTER":49.3682,"MEAN_ANOMALY":224.33,"EPHEMERIS_TYPE":0,"CLASSIFICATION_TYPE":"U","NORAD_CAT_ID":36792,"ELEMENT_SET_NO":999,"REV_AT_EPOCH":5727,"BSTAR":0,"MEAN_MOTION_DOT":-1.2e-7,"MEAN_MOTION_DDOT":0},{"OBJECT_NAME":"BEIDOU-2 IGSO-1","OBJECT_ID":"2010-036A","EPOCH":"2026-03-04T12:56:20.274720","MEAN_MOTION":1.00252363,"ECCENTRICITY":0.00540148,"INCLINATION":54.2925,"RA_OF_ASC_NODE":163.9091,"ARG_OF_PERICENTER":218.9469,"MEAN_ANOMALY":78.5819,"EPHEMERIS_TYPE":0,"CLASSIFICATION_TYPE":"U","NORAD_CAT_ID":36828,"ELEMENT_SET_NO":999,"REV_AT_EPOCH":5704,"BSTAR":0,"MEAN_MOTION_DOT":-1.38e-6,"MEAN_MOTION_DDOT":0},{"OBJECT_NAME":"NILESAT 201","OBJECT_ID":"2010-037A","EPOCH":"2026-03-04T07:42:38.710368","MEAN_MOTION":1.00272581,"ECCENTRICITY":0.00030252,"INCLINATION":0.0187,"RA_OF_ASC_NODE":178.5671,"ARG_OF_PERICENTER":173.3179,"MEAN_ANOMALY":278.8131,"EPHEMERIS_TYPE":0,"CLASSIFICATION_TYPE":"U","NORAD_CAT_ID":36830,"ELEMENT_SET_NO":999,"REV_AT_EPOCH":5732,"BSTAR":0,"MEAN_MOTION_DOT":-7.0e-7,"MEAN_MOTION_DDOT":0},{"OBJECT_NAME":"RASCOM-QAF 1R","OBJECT_ID":"2010-037B","EPOCH":"2026-03-04T09:10:38.507232","MEAN_MOTION":1.00271137,"ECCENTRICITY":0.0006568,"INCLINATION":0.029,"RA_OF_ASC_NODE":122.2302,"ARG_OF_PERICENTER":214.4609,"MEAN_ANOMALY":325.9829,"EPHEMERIS_TYPE":0,"CLASSIFICATION_TYPE":"U","NORAD_CAT_ID":36831,"ELEMENT_SET_NO":999,"REV_AT_EPOCH":5725,"BSTAR":0,"MEAN_MOTION_DOT":7.0e-8,"MEAN_MOTION_DDOT":0},{"OBJECT_NAME":"AEHF-1 (USA 214)","OBJECT_ID":"2010-039A","EPOCH":"2026-03-04T04:49:38.617824","MEAN_MOTION":1.00278598,"ECCENTRICITY":0.00044122,"INCLINATION":7.9626,"RA_OF_ASC_NODE":69.4148,"ARG_OF_PERICENTER":262.4668,"MEAN_ANOMALY":292.5573,"EPHEMERIS_TYPE":0,"CLASSIFICATION_TYPE":"U","NORAD_CAT_ID":36868,"ELEMENT_SET_NO":999,"REV_AT_EPOCH":5260,"BSTAR":0,"MEAN_MOTION_DOT":1.4e-6,"MEAN_MOTION_DDOT":0},{"OBJECT_NAME":"XM-5","OBJECT_ID":"2010-053A","EPOCH":"2026-03-04T11:43:38.558208","MEAN_MOTION":1.0027021,"ECCENTRICITY":0.000326,"INCLINATION":0.0669,"RA_OF_ASC_NODE":274.6489,"ARG_OF_PERICENTER":252.842,"MEAN_ANOMALY":55.4355,"EPHEMERIS_TYPE":0,"CLASSIFICATION_TYPE":"U","NORAD_CAT_ID":37185,"ELEMENT_SET_NO":999,"REV_AT_EPOCH":5643,"BSTAR":0,"MEAN_MOTION_DOT":-3.4e-7,"MEAN_MOTION_DDOT":0},{"OBJECT_NAME":"BSAT-3B","OBJECT_ID":"2010-056B","EPOCH":"2026-03-04T20:18:28.178208","MEAN_MOTION":1.00270385,"ECCENTRICITY":0.0001786,"INCLINATION":0.0836,"RA_OF_ASC_NODE":248.136,"ARG_OF_PERICENTER":35.6073,"MEAN_ANOMALY":293.2912,"EPHEMERIS_TYPE":0,"CLASSIFICATION_TYPE":"U","NORAD_CAT_ID":37207,"ELEMENT_SET_NO":999,"REV_AT_EPOCH":5105,"BSTAR":0,"MEAN_MOTION_DOT":-3.6e-6,"MEAN_MOTION_DDOT":0},{"OBJECT_NAME":"BEIDOU-2 G4","OBJECT_ID":"2010-057A","EPOCH":"2026-03-04T19:49:10.122240","MEAN_MOTION":1.00272165,"ECCENTRICITY":0.000902,"INCLINATION":3.3879,"RA_OF_ASC_NODE":69.548,"ARG_OF_PERICENTER":210.9407,"MEAN_ANOMALY":339.3787,"EPHEMERIS_TYPE":0,"CLASSIFICATION_TYPE":"U","NORAD_CAT_ID":37210,"ELEMENT_SET_NO":999,"REV_AT_EPOCH":5624,"BSTAR":0,"MEAN_MOTION_DOT":-1.21e-6,"MEAN_MOTION_DDOT":0},{"OBJECT_NAME":"SKYTERRA 1","OBJECT_ID":"2010-061A","EPOCH":"2026-03-04T01:34:29.043552","MEAN_MOTION":1.00271469,"ECCENTRICITY":0.00016038,"INCLINATION":4.9016,"RA_OF_ASC_NODE":50.914,"ARG_OF_PERICENTER":293.9262,"MEAN_ANOMALY":99.2594,"EPHEMERIS_TYPE":0,"CLASSIFICATION_TYPE":"U","NORAD_CAT_ID":37218,"ELEMENT_SET_NO":999,"REV_AT_EPOCH":5614,"BSTAR":0,"MEAN_MOTION_DOT":-1.28e-6,"MEAN_MOTION_DDOT":0},{"OBJECT_NAME":"HYLAS 1","OBJECT_ID":"2010-065A","EPOCH":"2026-03-04T09:10:38.507232","MEAN_MOTION":1.00650076,"ECCENTRICITY":0.00030891,"INCLINATION":5.3776,"RA_OF_ASC_NODE":74.3063,"ARG_OF_PERICENTER":330.2191,"MEAN_ANOMALY":254.5655,"EPHEMERIS_TYPE":0,"CLASSIFICATION_TYPE":"U","NORAD_CAT_ID":37237,"ELEMENT_SET_NO":999,"REV_AT_EPOCH":583,"BSTAR":0,"MEAN_MOTION_DOT":4.3e-7,"MEAN_MOTION_DDOT":0},{"OBJECT_NAME":"INTELSAT 17 (IS-17)","OBJECT_ID":"2010-065B","EPOCH":"2026-03-04T15:37:22.537920","MEAN_MOTION":1.00272648,"ECCENTRICITY":0.0002426,"INCLINATION":0.0187,"RA_OF_ASC_NODE":197.9066,"ARG_OF_PERICENTER":151.6096,"MEAN_ANOMALY":113.2049,"EPHEMERIS_TYPE":0,"CLASSIFICATION_TYPE":"U","NORAD_CAT_ID":37238,"ELEMENT_SET_NO":999,"REV_AT_EPOCH":5219,"BSTAR":0,"MEAN_MOTION_DOT":-1.2e-7,"MEAN_MOTION_DDOT":0},{"OBJECT_NAME":"BEIDOU-2 IGSO-2","OBJECT_ID":"2010-068A","EPOCH":"2026-03-04T13:12:14.573952","MEAN_MOTION":1.00258965,"ECCENTRICITY":0.00473304,"INCLINATION":47.7317,"RA_OF_ASC_NODE":273.1244,"ARG_OF_PERICENTER":213.1251,"MEAN_ANOMALY":341.1802,"EPHEMERIS_TYPE":0,"CLASSIFICATION_TYPE":"U","NORAD_CAT_ID":37256,"ELEMENT_SET_NO":999,"REV_AT_EPOCH":5574,"BSTAR":0,"MEAN_MOTION_DOT":-1.78e-6,"MEAN_MOTION_DDOT":0},{"OBJECT_NAME":"EUTELSAT KA-SAT 9A","OBJECT_ID":"2010-069A","EPOCH":"2026-03-04T09:02:38.798880","MEAN_MOTION":1.00273124,"ECCENTRICITY":0.00025875,"INCLINATION":0.0565,"RA_OF_ASC_NODE":356.5485,"ARG_OF_PERICENTER":146.5926,"MEAN_ANOMALY":163.6445,"EPHEMERIS_TYPE":0,"CLASSIFICATION_TYPE":"U","NORAD_CAT_ID":37258,"ELEMENT_SET_NO":999,"REV_AT_EPOCH":4295,"BSTAR":0,"MEAN_MOTION_DOT":5.0e-7,"MEAN_MOTION_DDOT":0},{"OBJECT_NAME":"HISPASAT 30W-5","OBJECT_ID":"2010-070A","EPOCH":"2026-03-04T09:34:38.603424","MEAN_MOTION":1.0027007,"ECCENTRICITY":0.00032869,"INCLINATION":0.0141,"RA_OF_ASC_NODE":159.5691,"ARG_OF_PERICENTER":204.3922,"MEAN_ANOMALY":271.8207,"EPHEMERIS_TYPE":0,"CLASSIFICATION_TYPE":"U","NORAD_CAT_ID":37264,"ELEMENT_SET_NO":999,"REV_AT_EPOCH":5213,"BSTAR":0,"MEAN_MOTION_DOT":-2.28e-6,"MEAN_MOTION_DDOT":0}]
